{
  "type": "FeatureCollection",
  "features": [
    {
      "type": "Feature",
      "properties": {
        "norad_id": 40069,
        "name": "METEOR-M 2",
        "group": "weather",
        "lat": -15.238140267944928,
        "lon": -28.531952083911023,
        "alt_km": 828.5844006145544,
        "timestamp": "2025-12-17T17:50:18.894994+00:00",
        "meta_object_name": "METEOR-M 2",
        "meta_object_id": "2014-037A",
        "meta_epoch": "2025-12-17T06:05:05.380800",
        "meta_mean_motion": 14.21388202,
        "meta_eccentricity": 0.00051702,
        "meta_inclination": 98.4899,
        "meta_ra_of_asc_node": 328.6652,
        "meta_arg_of_pericenter": 195.4944,
        "meta_mean_anomaly": 164.6076,
        "meta_ephemeris_type": 0,
        "meta_classification_type": "U",
        "meta_norad_cat_id": 40069,
        "meta_element_set_no": 999,
        "meta_rev_at_epoch": 59347,
        "meta_bstar": 9.502573e-06,
        "meta_mean_motion_dot": -2.1e-07,
        "meta_mean_motion_ddot": 0,
        "tle_line1": "1 40069U 14037A   25351.25353450 -.00000021  00000+0  95026-5 0  9997",
        "tle_line2": "2 40069  98.4899 328.6652 0005170 195.4944 164.6076 14.21388202593478"
      },
      "geometry": {
        "type": "Point",
        "coordinates": [
          -28.531952083911023,
          -15.238140267944928
        ]
      }
    },
    {
      "type": "Feature",
      "properties": {
        "norad_id": 40267,
        "name": "HIMAWARI-8",
        "group": "weather",
        "lat": -0.0030328035216227,
        "lon": 134.84805813130762,
        "alt_km": 35789.30181124884,
        "timestamp": "2025-12-17T17:50:18.895006+00:00",
        "meta_object_name": "HIMAWARI-8",
        "meta_object_id": "2014-060A",
        "meta_epoch": "2025-12-17T05:32:16.442304",
        "meta_mean_motion": 1.00272371,
        "meta_eccentricity": 8.61e-05,
        "meta_inclination": 0.0195,
        "meta_ra_of_asc_node": 160.7714,
        "meta_arg_of_pericenter": 130.4073,
        "meta_mean_anomaly": 18.669,
        "meta_ephemeris_type": 0,
        "meta_classification_type": "U",
        "meta_norad_cat_id": 40267,
        "meta_element_set_no": 999,
        "meta_rev_at_epoch": 4093,
        "meta_bstar": 0,
        "meta_mean_motion_dot": -2.51e-06,
        "meta_mean_motion_ddot": 0,
        "tle_line1": "1 40267U 14060A   25351.23074586 -.00000251  00000+0  00000+0 0  9998",
        "tle_line2": "2 40267   0.0195 160.7714 0000861 130.4073  18.6690  1.00272371 40934"
      },
      "geometry": {
        "type": "Point",
        "coordinates": [
          134.84805813130762,
          -0.0030328035216227
        ]
      }
    },
    {
      "type": "Feature",
      "properties": {
        "norad_id": 40367,
        "name": "FENGYUN 2G",
        "group": "weather",
        "lat": 1.6695600012781326,
        "lon": 93.49546597972399,
        "alt_km": 35800.64373533258,
        "timestamp": "2025-12-17T17:50:18.895019+00:00",
        "meta_object_name": "FENGYUN 2G",
        "meta_object_id": "2014-090A",
        "meta_epoch": "2025-12-16T18:57:58.838976",
        "meta_mean_motion": 1.00262837,
        "meta_eccentricity": 0.00028831,
        "meta_inclination": 5.1785,
        "meta_ra_of_asc_node": 75.0518,
        "meta_arg_of_pericenter": 204.4015,
        "meta_mean_anomaly": 190.125,
        "meta_ephemeris_type": 0,
        "meta_classification_type": "U",
        "meta_norad_cat_id": 40367,
        "meta_element_set_no": 999,
        "meta_rev_at_epoch": 4017,
        "meta_bstar": 0,
        "meta_mean_motion_dot": -2.79e-06,
        "meta_mean_motion_ddot": 0,
        "tle_line1": "1 40367U 14090A   25350.79026434 -.00000279  00000+0  00000+0 0  9991",
        "tle_line2": "2 40367   5.1785  75.0518 0002883 204.4015 190.1250  1.00262837 40170"
      },
      "geometry": {
        "type": "Point",
        "coordinates": [
          93.49546597972399,
          1.6695600012781326
        ]
      }
    },
    {
      "type": "Feature",
      "properties": {
        "norad_id": 40732,
        "name": "METEOSAT-11 (MSG-4)",
        "group": "weather",
        "lat": -2.551451071942197,
        "lon": 3.4379703079952284,
        "alt_km": 35790.706263220854,
        "timestamp": "2025-12-17T17:50:18.895031+00:00",
        "meta_object_name": "METEOSAT-11 (MSG-4)",
        "meta_object_id": "2015-034A",
        "meta_epoch": "2025-12-17T04:48:34.026048",
        "meta_mean_motion": 1.00268884,
        "meta_eccentricity": 8.998e-05,
        "meta_inclination": 2.747,
        "meta_ra_of_asc_node": 71.9903,
        "meta_arg_of_pericenter": 132.6225,
        "meta_mean_anomaly": 322.8401,
        "meta_ephemeris_type": 0,
        "meta_classification_type": "U",
        "meta_norad_cat_id": 40732,
        "meta_element_set_no": 999,
        "meta_rev_at_epoch": 539,
        "meta_bstar": 0,
        "meta_mean_motion_dot": 8.3e-07,
        "meta_mean_motion_ddot": 0,
        "tle_line1": "1 40732U 15034A   25351.20039382  .00000083  00000+0  00000+0 0  9991",
        "tle_line2": "2 40732   2.7470  71.9903 0000899 132.6225 322.8401  1.00268884  5398"
      },
      "geometry": {
        "type": "Point",
        "coordinates": [
          3.4379703079952284,
          -2.551451071942197
        ]
      }
    },
    {
      "type": "Feature",
      "properties": {
        "norad_id": 41105,
        "name": "ELEKTRO-L 2",
        "group": "weather",
        "lat": -6.236518438989177,
        "lon": -20.274989766304238,
        "alt_km": 35778.43869674858,
        "timestamp": "2025-12-17T17:50:18.895044+00:00",
        "meta_object_name": "ELEKTRO-L 2",
        "meta_object_id": "2015-074A",
        "meta_epoch": "2025-12-17T02:58:11.708832",
        "meta_mean_motion": 1.00272669,
        "meta_eccentricity": 0.00036686,
        "meta_inclination": 6.2364,
        "meta_ra_of_asc_node": 72.7769,
        "meta_arg_of_pericenter": 209.1186,
        "meta_mean_anomaly": 194.171,
        "meta_ephemeris_type": 0,
        "meta_classification_type": "U",
        "meta_norad_cat_id": 41105,
        "meta_element_set_no": 999,
        "meta_rev_at_epoch": 3668,
        "meta_bstar": 0,
        "meta_mean_motion_dot": -9.8e-07,
        "meta_mean_motion_ddot": 0,
        "tle_line1": "1 41105U 15074A   25351.12374663 -.00000098  00000+0  00000+0 0  9992",
        "tle_line2": "2 41105   6.2364  72.7769 0003668 209.1186 194.1710  1.00272669 36681"
      },
      "geometry": {
        "type": "Point",
        "coordinates": [
          -20.274989766304238,
          -6.236518438989177
        ]
      }
    },
    {
      "type": "Feature",
      "properties": {
        "norad_id": 41752,
        "name": "INSAT-3DR",
        "group": "weather",
        "lat": -0.004799690848836777,
        "lon": 68.23591255115471,
        "alt_km": 35841.36440551737,
        "timestamp": "2025-12-17T17:50:18.895056+00:00",
        "meta_object_name": "INSAT-3DR",
        "meta_object_id": "2016-054A",
        "meta_epoch": "2025-12-17T03:23:57.130080",
        "meta_mean_motion": 1.00271579,
        "meta_eccentricity": 0.00141601,
        "meta_inclination": 0.1029,
        "meta_ra_of_asc_node": 86.6714,
        "meta_arg_of_pericenter": 184.6225,
        "meta_mean_anomaly": 299.7068,
        "meta_ephemeris_type": 0,
        "meta_classification_type": "U",
        "meta_norad_cat_id": 41752,
        "meta_element_set_no": 999,
        "meta_rev_at_epoch": 3399,
        "meta_bstar": 0,
        "meta_mean_motion_dot": -5.3e-07,
        "meta_mean_motion_ddot": 0,
        "tle_line1": "1 41752U 16054A   25351.14163345 -.00000053  00000+0  00000+0 0  9995",
        "tle_line2": "2 41752   0.1029  86.6714 0014160 184.6225 299.7068  1.00271579 33992"
      },
      "geometry": {
        "type": "Point",
        "coordinates": [
          68.23591255115471,
          -0.004799690848836777
        ]
      }
    },
    {
      "type": "Feature",
      "properties": {
        "norad_id": 41836,
        "name": "HIMAWARI-9",
        "group": "weather",
        "lat": -0.001869075190276255,
        "lon": 134.9259047999675,
        "alt_km": 35790.96320941462,
        "timestamp": "2025-12-17T17:50:18.895069+00:00",
        "meta_object_name": "HIMAWARI-9",
        "meta_object_id": "2016-064A",
        "meta_epoch": "2025-12-16T14:01:33.494016",
        "meta_mean_motion": 1.00269191,
        "meta_eccentricity": 9.983e-05,
        "meta_inclination": 0.0171,
        "meta_ra_of_asc_node": 275.3759,
        "meta_arg_of_pericenter": 22.8561,
        "meta_mean_anomaly": 138.3893,
        "meta_ephemeris_type": 0,
        "meta_classification_type": "U",
        "meta_norad_cat_id": 41836,
        "meta_element_set_no": 999,
        "meta_rev_at_epoch": 3337,
        "meta_bstar": 0,
        "meta_mean_motion_dot": -2.51e-06,
        "meta_mean_motion_ddot": 0,
        "tle_line1": "1 41836U 16064A   25350.58441544 -.00000251  00000+0  00000+0 0  9996",
        "tle_line2": "2 41836   0.0171 275.3759 0000998  22.8561 138.3893  1.00269191 33371"
      },
      "geometry": {
        "type": "Point",
        "coordinates": [
          134.9259047999675,
          -0.001869075190276255
        ]
      }
    }
  ]
}